[{"OBJECT_NAME":"STARLINK-30515","OBJECT_ID":"2023-151V","EPOCH":"2026-03-09T04:33:05.756544","MEAN_MOTION":15.02535748,"ECCENTRICITY":0.00013484,"INCLINATION":43.0055,"RA_OF_ASC_NODE":354.6324,"ARG_OF_PERICENTER":270.3193,"MEAN_ANOMALY":89.7495,"EPHEMERIS_TYPE":0,"CLASSIFICATION_TYPE":"U","NORAD_CAT_ID":57983,"ELEMENT_SET_NO":999,"REV_AT_EPOCH":13550,"BSTAR":1.2125609e-5,"MEAN_MOTION_DOT":-4.0e-7,"MEAN_MOTION_DDOT":0},{"OBJECT_NAME":"UNKNOWN","OBJECT_ID":"","EPOCH":"2026-03-07T16:41:41.743392","MEAN_MOTION":15.0507428,"ECCENTRICITY":0.0006664,"INCLINATION":85.8737,"RA_OF_ASC_NODE":153.9139,"ARG_OF_PERICENTER":326.6675,"MEAN_ANOMALY":33.4139,"EPHEMERIS_TYPE":0,"CLASSIFICATION_TYPE":"U","NORAD_CAT_ID":82448,"ELEMENT_SET_NO":999,"REV_AT_EPOCH":44981,"BSTAR":0.00062595,"MEAN_MOTION_DOT":8.933e-5,"MEAN_MOTION_DDOT":0}]
